{"type": "FeatureCollection", "features": [ {"type": "Feature", "properties": {"norad_id": 67020, "name": "STARLINK-36172", "group": "last-30-days", "lat": 59.153764512310815, "lon": 72.58672219943962, "alt_km": 324.46516714236714, "timestamp": "2025-12-24T07:45:04.935033+00:00", "meta": {"OBJECT_NAME": "STARLINK-36172", "OBJECT_ID": "2025-293T", "EPOCH": "2025-12-23T22:00:01.999584", "MEAN_MOTION": 15.82167412, "ECCENTRICITY": 0.00040234, "INCLINATION": 69.9922, "RA_OF_ASC_NODE": 291.3489, "ARG_OF_PERICENTER": 267.8044, "MEAN_ANOMALY": 53.8489, "EPHEMERIS_TYPE": 0, "CLASSIFICATION_TYPE": "U", "NORAD_CAT_ID": 67020, "ELEMENT_SET_NO": 999, "REV_AT_EPOCH": 202, "BSTAR": -0.0093611659, "MEAN_MOTION_DOT": -0.01675759, "MEAN_MOTION_DDOT": 0}, "tle": {"line1": "1 67020U 25293T   25357.91668981 -.01675759  00000+0 -93612-2 0  9990", "line2": "2 67020  69.9922 291.3489 0004023 267.8044  53.8489 15.82167412  2028"}}, "geometry": {"type": "Point", "coordinates": [72.58672219943962, 59.153764512310815]}}, {"type": "Feature", "properties": {"norad_id": 67021, "name": "STARLINK-36184", "group": "last-30-days", "lat": 57.21642945616064, "lon": 75.72819620607768, "alt_km": 324.65510469718356, "timestamp": "2025-12-24T07:45:04.935044+00:00", "meta": {"OBJECT_NAME": "STARLINK-36184", "OBJECT_ID": "2025-293U", "EPOCH": "2025-12-23T22:00:01.999584", "MEAN_MOTION": 15.82145634, "ECCENTRICITY": 0.00039577, "INCLINATION": 69.9925, "RA_OF_ASC_NODE": 291.3457, "ARG_OF_PERICENTER": 267.2226, "MEAN_ANOMALY": 57.0103, "EPHEMERIS_TYPE": 0, "CLASSIFICATION_TYPE": "U", "NORAD_CAT_ID": 67021, "ELEMENT_SET_NO": 999, "REV_AT_EPOCH": 202, "BSTAR": -0.0093816438, "MEAN_MOTION_DOT": -0.01677365, "MEAN_MOTION_DDOT": 0}, "tle": {"line1": "1 67021U 25293U   25357.91668981 -.01677365  00000+0 -93816-2 0  9992", "line2": "2 67021  69.9925 291.3457 0003957 267.2226  57.0103 15.82145634  2029"}}, "geometry": {"type": "Point", "coordinates": [75.72819620607768, 57.21642945616064]}}, {"type": "Feature", "properties": {"norad_id": 67022, "name": "STARLINK-36209", "group": "last-30-days", "lat": 54.93615720070345, "lon": 78.90427218805688, "alt_km": 324.88978626857715, "timestamp": "2025-12-24T07:45:04.935054+00:00", "meta": {"OBJECT_NAME": "STARLINK-36209", "OBJECT_ID": "2025-293V", "EPOCH": "2025-12-23T22:00:01.999584", "MEAN_MOTION": 15.82110661, "ECCENTRICITY": 0.00037773, "INCLINATION": 69.9923, "RA_OF_ASC_NODE": 291.3424, "ARG_OF_PERICENTER": 268.3823, "MEAN_ANOMALY": 58.7833, "EPHEMERIS_TYPE": 0, "CLASSIFICATION_TYPE": "U", "NORAD_CAT_ID": 67022, "ELEMENT_SET_NO": 999, "REV_AT_EPOCH": 202, "BSTAR": -0.0093804473, "MEAN_MOTION_DOT": -0.01674576, "MEAN_MOTION_DDOT": 0}, "tle": {"line1": "1 67022U 25293V   25357.91668981 -.01674576  00000+0 -93804-2 0  9991", "line2": "2 67022  69.9923 291.3424 0003777 268.3823  58.7833 15.82110661  2027"}}, "geometry": {"type": "Point", "coordinates": [78.90427218805688, 54.93615720070345]}}, {"type": "Feature", "properties": {"norad_id": 67023, "name": "STARLINK-36191", "group": "last-30-days", "lat": 52.93576040931539, "lon": 81.33239737465952, "alt_km": 325.0570591224923, "timestamp": "2025-12-24T07:45:04.935066+00:00", "meta": {"OBJECT_NAME": "STARLINK-36191", "OBJECT_ID": "2025-293W", "EPOCH": "2025-12-23T22:00:01.999584", "MEAN_MOTION": 15.8208989, "ECCENTRICITY": 0.00038197, "INCLINATION": 69.9921, "RA_OF_ASC_NODE": 291.3388, "ARG_OF_PERICENTER": 264.3337, "MEAN_ANOMALY": 65.3189, "EPHEMERIS_TYPE": 0, "CLASSIFICATION_TYPE": "U", "NORAD_CAT_ID": 67023, "ELEMENT_SET_NO": 999, "REV_AT_EPOCH": 191, "BSTAR": -0.0093640042, "MEAN_MOTION_DOT": -0.01670664, "MEAN_MOTION_DDOT": 0}, "tle": {"line1": "1 67023U 25293W   25357.91668981 -.01670664  00000+0 -93640-2 0  9994", "line2": "2 67023  69.9921 291.3388 0003819 264.3337  65.3189 15.82089890  1912"}}, "geometry": {"type": "Point", "coordinates": [81.33239737465952, 52.93576040931539]}}, {"type": "Feature", "properties": {"norad_id": 67024, "name": "STARLINK-36192", "group": "last-30-days", "lat": 50.67308848624162, "lon": 83.7657912970626, "alt_km": 325.4622803918937, "timestamp": "2025-12-24T07:45:04.935078+00:00", "meta": {"OBJECT_NAME": "STARLINK-36192", "OBJECT_ID": "2025-293X", "EPOCH": "2025-12-23T22:00:01.999584", "MEAN_MOTION": 15.82062649, "ECCENTRICITY": 0.0003873, "INCLINATION": 69.9923, "RA_OF_ASC_NODE": 291.3359, "ARG_OF_PERICENTER": 266.1126, "MEAN_ANOMALY": 66.2971, "EPHEMERIS_TYPE": 0, "CLASSIFICATION_TYPE": "U", "NORAD_CAT_ID": 67024, "ELEMENT_SET_NO": 999, "REV_AT_EPOCH": 202, "BSTAR": -0.0094020267, "MEAN_MOTION_DOT": -0.01674742, "MEAN_MOTION_DDOT": 0}, "tle": {"line1": "1 67024U 25293X   25357.91668981 -.01674742  00000+0 -94020-2 0  9999", "line2": "2 67024  69.9923 291.3359 0003873 266.1126  66.2971 15.82062649  2024"}}, "geometry": {"type": "Point", "coordinates": [83.7657912970626, 50.67308848624162]}}, {"type": "Feature", "properties": {"norad_id": 67025, "name": "STARLINK-36178", "group": "last-30-days", "lat": 48.71861499128899, "lon": 85.649255227268, "alt_km": 325.6975974089628, "timestamp": "2025-12-24T07:45:04.935088+00:00", "meta": {"OBJECT_NAME": "STARLINK-36178", "OBJECT_ID": "2025-293Y", "EPOCH": "2025-12-23T22:00:01.999584", "MEAN_MOTION": 15.82047805, "ECCENTRICITY": 0.00038974, "INCLINATION": 69.9923, "RA_OF_ASC_NODE": 291.333, "ARG_OF_PERICENTER": 265.4876, "MEAN_ANOMALY": 69.2428, "EPHEMERIS_TYPE": 0, "CLASSIFICATION_TYPE": "U", "NORAD_CAT_ID": 67025, "ELEMENT_SET_NO": 999, "REV_AT_EPOCH": 202, "BSTAR": -0.0093828683, "MEAN_MOTION_DOT": -0.016708, "MEAN_MOTION_DDOT": 0}, "tle": {"line1": "1 67025U 25293Y   25357.91668981 -.01670800  00000+0 -93829-2 0  9997", "line2": "2 67025  69.9923 291.3330 0003897 265.4876  69.2428 15.82047805  2021"}}, "geometry": {"type": "Point", "coordinates": [85.649255227268, 48.71861499128899]}}, {"type": "Feature", "properties": {"norad_id": 67026, "name": "STARLINK-36176", "group": "last-30-days", "lat": 44.40774134478476, "lon": 89.25344482410843, "alt_km": 326.2840304240581, "timestamp": "2025-12-24T07:45:04.935098+00:00", "meta": {"OBJECT_NAME": "STARLINK-36176", "OBJECT_ID": "2025-293Z", "EPOCH": "2025-12-23T22:00:01.999584", "MEAN_MOTION": 15.82009063, "ECCENTRICITY": 0.00039061, "INCLINATION": 69.9921, "RA_OF_ASC_NODE": 291.327, "ARG_OF_PERICENTER": 264.8762, "MEAN_ANOMALY": 74.8822, "EPHEMERIS_TYPE": 0, "CLASSIFICATION_TYPE": "U", "NORAD_CAT_ID": 67026, "ELEMENT_SET_NO": 999, "REV_AT_EPOCH": 202, "BSTAR": -0.0094279602, "MEAN_MOTION_DOT": -0.01675119, "MEAN_MOTION_DDOT": 0}, "tle": {"line1": "1 67026U 25293Z   25357.91668981 -.01675119  00000+0 -94280-2 0  9998", "line2": "2 67026  69.9921 291.3270 0003906 264.8762  74.8822 15.82009063  2025"}}, "geometry": {"type": "Point", "coordinates": [89.25344482410843, 44.40774134478476]}}, {"type": "Feature", "properties": {"norad_id": 67027, "name": "STARLINK-36171", "group": "last-30-days", "lat": 46.31751633390972, "lon": 87.73873547568829, "alt_km": 326.0236558845245, "timestamp": "2025-12-24T07:45:04.935108+00:00", "meta": {"OBJECT_NAME": "STARLINK-36171", "OBJECT_ID": "2025-293AA", "EPOCH": "2025-12-23T22:00:01.999584", "MEAN_MOTION": 15.82016407, "ECCENTRICITY": 0.00037087, "INCLINATION": 69.9921, "RA_OF_ASC_NODE": 291.3298, "ARG_OF_PERICENTER": 267.415, "MEAN_ANOMALY": 70.1431, "EPHEMERIS_TYPE": 0, "CLASSIFICATION_TYPE": "U", "NORAD_CAT_ID": 67027, "ELEMENT_SET_NO": 999, "REV_AT_EPOCH": 202, "BSTAR": -0.0094103797, "MEAN_MOTION_DOT": -0.01672684, "MEAN_MOTION_DDOT": 0}, "tle": {"line1": "1 67027U 25293AA  25357.91668981 -.01672684  00000+0 -94104-2 0  9998", "line2": "2 67027  69.9921 291.3298 0003708 267.4150  70.1431 15.82016407  2021"}}, "geometry": {"type": "Point", "coordinates": [87.73873547568829, 46.31751633390972]}}, {"type": "Feature", "properties": {"norad_id": 67028, "name": "STARLINK-36132", "group": "last-30-days", "lat": 39.96195554633096, "lon": 92.380889750748, "alt_km": 327.0526755539613, "timestamp": "2025-12-24T07:45:04.935120+00:00", "meta": {"OBJECT_NAME": "STARLINK-36132", "OBJECT_ID": "2025-293AB", "EPOCH": "2025-12-23T22:00:01.999584", "MEAN_MOTION": 15.81966049, "ECCENTRICITY": 0.00038992, "INCLINATION": 69.9923, "RA_OF_ASC_NODE": 291.3212, "ARG_OF_PERICENTER": 268.6958, "MEAN_ANOMALY": 76.1313, "EPHEMERIS_TYPE": 0, "CLASSIFICATION_TYPE": "U", "NORAD_CAT_ID": 67028, "ELEMENT_SET_NO": 999, "REV_AT_EPOCH": 202, "BSTAR": -0.0094336472, "MEAN_MOTION_DOT": -0.01673051, "MEAN_MOTION_DDOT": 0}, "tle": {"line1": "1 67028U 25293AB  25357.91668981 -.01673051  00000+0 -94336-2 0  9995", "line2": "2 67028  69.9923 291.3212 0003899 268.6958  76.1313 15.81966049  2020"}}, "geometry": {"type": "Point", "coordinates": [92.380889750748, 39.96195554633096]}}, {"type": "Feature", "properties": {"norad_id": 67029, "name": "STARLINK-36190", "group": "last-30-days", "lat": 42.38662908413573, "lon": 90.73820660090878, "alt_km": 326.51017562934703, "timestamp": "2025-12-24T07:45:04.935130+00:00", "meta": {"OBJECT_NAME": "STARLINK-36190", "OBJECT_ID": "2025-293AC", "EPOCH": "2025-12-23T22:00:01.999584", "MEAN_MOTION": 15.81993445, "ECCENTRICITY": 0.00038776, "INCLINATION": 69.9924, "RA_OF_ASC_NODE": 291.3247, "ARG_OF_PERICENTER": 264.0718, "MEAN_ANOMALY": 77.9965, "EPHEMERIS_TYPE": 0, "CLASSIFICATION_TYPE": "U", "NORAD_CAT_ID": 67029, "ELEMENT_SET_NO": 999, "REV_AT_EPOCH": 202, "BSTAR": -0.0094142058, "MEAN_MOTION_DOT": -0.01671902, "MEAN_MOTION_DDOT": 0}, "tle": {"line1": "1 67029U 25293AC  25357.91668981 -.01671902  00000+0 -94142-2 0  9994", "line2": "2 67029  69.9924 291.3247 0003877 264.0718  77.9965 15.81993445  2022"}}, "geometry": {"type": "Point", "coordinates": [90.73820660090878, 42.38662908413573]}}]}